[{"OBJECT_NAME":"STARLINK-35701","OBJECT_ID":"2025-299S","EPOCH":"2026-03-09T22:00:01.999584","MEAN_MOTION":15.27589911,"ECCENTRICITY":0.00013251,"INCLINATION":42.9998,"RA_OF_ASC_NODE":167.4949,"ARG_OF_PERICENTER":292.0513,"MEAN_ANOMALY":60.6873,"EPHEMERIS_TYPE":0,"CLASSIFICATION_TYPE":"U","NORAD_CAT_ID":67118,"ELEMENT_SET_NO":999,"REV_AT_EPOCH":590,"BSTAR":-0.00048726668,"MEAN_MOTION_DOT":-0.0001365,"MEAN_MOTION_DDOT":0},{"OBJECT_NAME":"SIMSAT 2","OBJECT_ID":"2000-026B","EPOCH":"2026-03-09T20:25:01.673184","MEAN_MOTION":15.29036787,"ECCENTRICITY":0.00037035,"INCLINATION":86.3514,"RA_OF_ASC_NODE":176.4271,"ARG_OF_PERICENTER":287.9875,"MEAN_ANOMALY":72.0969,"EPHEMERIS_TYPE":0,"CLASSIFICATION_TYPE":"U","NORAD_CAT_ID":26366,"ELEMENT_SET_NO":999,"REV_AT_EPOCH":42803,"BSTAR":0.00013465771,"MEAN_MOTION_DOT":3.833e-5,"MEAN_MOTION_DDOT":0}]
